{
  "type": "FeatureCollection",
  "features": [
    {
      "type": "Feature",
      "properties": {
        "norad_id": 66524,
        "name": "STARLINK-35687",
        "group": "last-30-days",
        "lat": 25.988092436090955,
        "lon": 126.51232732256125,
        "alt_km": 359.6484256856738,
        "timestamp": "2025-12-05T18:53:12.096826+00:00",
        "meta_object_name": "STARLINK-35687",
        "meta_object_id": "2025-265J",
        "meta_epoch": "2025-12-05T06:00:02.000160",
        "meta_mean_motion": 15.70701866,
        "meta_eccentricity": 0.00012812,
        "meta_inclination": 42.9999,
        "meta_ra_of_asc_node": 98.2014,
        "meta_arg_of_pericenter": 266.9766,
        "meta_mean_anomaly": 335.4644,
        "meta_ephemeris_type": 0,
        "meta_classification_type": "U",
        "meta_norad_cat_id": 66524,
        "meta_element_set_no": 999,
        "meta_rev_at_epoch": 379,
        "meta_bstar": -0.016659099,
        "meta_mean_motion_dot": -0.01888263,
        "meta_mean_motion_ddot": 0,
        "tle_line1": "1 66524U 25265J   25339.25002315 -.01888263  00000+0 -16659-1 0  9998",
        "tle_line2": "2 66524  42.9999  98.2014 0001281 266.9766 335.4644 15.70701866  3794"
      },
      "geometry": {
        "type": "Point",
        "coordinates": [
          126.51232732256125,
          25.988092436090955
        ]
      }
    },
    {
      "type": "Feature",
      "properties": {
        "norad_id": 66525,
        "name": "STARLINK-35975",
        "group": "last-30-days",
        "lat": 27.09281141011273,
        "lon": 128.2627651399251,
        "alt_km": 359.6017667525257,
        "timestamp": "2025-12-05T18:53:12.096836+00:00",
        "meta_object_name": "STARLINK-35975",
        "meta_object_id": "2025-265K",
        "meta_epoch": "2025-12-05T06:00:02.000160",
        "meta_mean_motion": 15.70702344,
        "meta_eccentricity": 0.00013867,
        "meta_inclination": 42.9999,
        "meta_ra_of_asc_node": 98.1969,
        "meta_arg_of_pericenter": 264.3712,
        "meta_mean_anomaly": 339.9853,
        "meta_ephemeris_type": 0,
        "meta_classification_type": "U",
        "meta_norad_cat_id": 66525,
        "meta_element_set_no": 999,
        "meta_rev_at_epoch": 379,
        "meta_bstar": -0.016646118,
        "meta_mean_motion_dot": -0.01887066,
        "meta_mean_motion_ddot": 0,
        "tle_line1": "1 66525U 25265K   25339.25002315 -.01887066  00000+0 -16646-1 0  9995",
        "tle_line2": "2 66525  42.9999  98.1969 0001386 264.3712 339.9853 15.70702344  3795"
      },
      "geometry": {
        "type": "Point",
        "coordinates": [
          128.2627651399251,
          27.09281141011273
        ]
      }
    },
    {
      "type": "Feature",
      "properties": {
        "norad_id": 66526,
        "name": "STARLINK-35932",
        "group": "last-30-days",
        "lat": 28.17421553928556,
        "lon": 130.04588383087838,
        "alt_km": 359.38905291419724,
        "timestamp": "2025-12-05T18:53:12.096846+00:00",
        "meta_object_name": "STARLINK-35932",
        "meta_object_id": "2025-265L",
        "meta_epoch": "2025-12-05T06:00:02.000160",
        "meta_mean_motion": 15.70703017,
        "meta_eccentricity": 0.00013234,
        "meta_inclination": 42.9999,
        "meta_ra_of_asc_node": 98.1923,
        "meta_arg_of_pericenter": 266.4195,
        "meta_mean_anomaly": 339.8552,
        "meta_ephemeris_type": 0,
        "meta_classification_type": "U",
        "meta_norad_cat_id": 66526,
        "meta_element_set_no": 999,
        "meta_rev_at_epoch": 368,
        "meta_bstar": -0.016672531,
        "meta_mean_motion_dot": -0.01889728,
        "meta_mean_motion_ddot": 0,
        "tle_line1": "1 66526U 25265L   25339.25002315 -.01889728  00000+0 -16673-1 0  9993",
        "tle_line2": "2 66526  42.9999  98.1923 0001323 266.4195 339.8552 15.70703017  3686"
      },
      "geometry": {
        "type": "Point",
        "coordinates": [
          130.04588383087838,
          28.17421553928556
        ]
      }
    },
    {
      "type": "Feature",
      "properties": {
        "norad_id": 66527,
        "name": "STARLINK-35935",
        "group": "last-30-days",
        "lat": 29.232055541796896,
        "lon": 131.8650674360522,
        "alt_km": 359.19828647237864,
        "timestamp": "2025-12-05T18:53:12.096857+00:00",
        "meta_object_name": "STARLINK-35935",
        "meta_object_id": "2025-265M",
        "meta_epoch": "2025-12-05T06:00:02.000160",
        "meta_mean_motion": 15.70706633,
        "meta_eccentricity": 0.00012463,
        "meta_inclination": 43,
        "meta_ra_of_asc_node": 98.1876,
        "meta_arg_of_pericenter": 266.7791,
        "meta_mean_anomaly": 341.4095,
        "meta_ephemeris_type": 0,
        "meta_classification_type": "U",
        "meta_norad_cat_id": 66527,
        "meta_element_set_no": 999,
        "meta_rev_at_epoch": 379,
        "meta_bstar": -0.016704093,
        "meta_mean_motion_dot": -0.01893106,
        "meta_mean_motion_ddot": 0,
        "tle_line1": "1 66527U 25265M   25339.25002315 -.01893106  00000+0 -16704-1 0  9994",
        "tle_line2": "2 66527  43.0000  98.1876 0001246 266.7791 341.4095 15.70706633  3798"
      },
      "geometry": {
        "type": "Point",
        "coordinates": [
          131.8650674360522,
          29.232055541796896
        ]
      }
    },
    {
      "type": "Feature",
      "properties": {
        "norad_id": 66528,
        "name": "STARLINK-35928",
        "group": "last-30-days",
        "lat": 30.265506472501407,
        "lon": 133.72332518312865,
        "alt_km": 359.0828442063139,
        "timestamp": "2025-12-05T18:53:12.096867+00:00",
        "meta_object_name": "STARLINK-35928",
        "meta_object_id": "2025-265N",
        "meta_epoch": "2025-12-05T06:00:02.000160",
        "meta_mean_motion": 15.70701582,
        "meta_eccentricity": 0.00012932,
        "meta_inclination": 43,
        "meta_ra_of_asc_node": 98.1826,
        "meta_arg_of_pericenter": 266.5985,
        "meta_mean_anomaly": 343.5106,
        "meta_ephemeris_type": 0,
        "meta_classification_type": "U",
        "meta_norad_cat_id": 66528,
        "meta_element_set_no": 999,
        "meta_rev_at_epoch": 379,
        "meta_bstar": -0.016651675,
        "meta_mean_motion_dot": -0.01887504,
        "meta_mean_motion_ddot": 0,
        "tle_line1": "1 66528U 25265N   25339.25002315 -.01887504  00000+0 -16652-1 0  9992",
        "tle_line2": "2 66528  43.0000  98.1826 0001293 266.5985 343.5106 15.70701582  3793"
      },
      "geometry": {
        "type": "Point",
        "coordinates": [
          133.72332518312865,
          30.265506472501407
        ]
      }
    },
    {
      "type": "Feature",
      "properties": {
        "norad_id": 66529,
        "name": "STARLINK-35933",
        "group": "last-30-days",
        "lat": 31.272037979292058,
        "lon": 135.62078392117408,
        "alt_km": 358.9842198558463,
        "timestamp": "2025-12-05T18:53:12.096879+00:00",
        "meta_object_name": "STARLINK-35933",
        "meta_object_id": "2025-265P",
        "meta_epoch": "2025-12-05T06:00:02.000160",
        "meta_mean_motion": 15.70698648,
        "meta_eccentricity": 0.00013261,
        "meta_inclination": 42.9999,
        "meta_ra_of_asc_node": 98.1775,
        "meta_arg_of_pericenter": 265.2633,
        "meta_mean_anomaly": 346.7646,
        "meta_ephemeris_type": 0,
        "meta_classification_type": "U",
        "meta_norad_cat_id": 66529,
        "meta_element_set_no": 999,
        "meta_rev_at_epoch": 379,
        "meta_bstar": -0.01661327,
        "meta_mean_motion_dot": -0.01883451,
        "meta_mean_motion_ddot": 0,
        "tle_line1": "1 66529U 25265P   25339.25002315 -.01883451  00000+0 -16613-1 0  9997",
        "tle_line2": "2 66529  42.9999  98.1775 0001326 265.2633 346.7646 15.70698648  3797"
      },
      "geometry": {
        "type": "Point",
        "coordinates": [
          135.62078392117408,
          31.272037979292058
        ]
      }
    },
    {
      "type": "Feature",
      "properties": {
        "norad_id": 66530,
        "name": "STARLINK-35961",
        "group": "last-30-days",
        "lat": 32.24940928631817,
        "lon": 137.5580284541567,
        "alt_km": 358.83152119882743,
        "timestamp": "2025-12-05T18:53:12.096891+00:00",
        "meta_object_name": "STARLINK-35961",
        "meta_object_id": "2025-265Q",
        "meta_epoch": "2025-12-05T06:00:02.000160",
        "meta_mean_motion": 15.70703792,
        "meta_eccentricity": 0.00013755,
        "meta_inclination": 42.9999,
        "meta_ra_of_asc_node": 98.173,
        "meta_arg_of_pericenter": 268.5771,
        "meta_mean_anomaly": 345.3649,
        "meta_ephemeris_type": 0,
        "meta_classification_type": "U",
        "meta_norad_cat_id": 66530,
        "meta_element_set_no": 999,
        "meta_rev_at_epoch": 379,
        "meta_bstar": -0.016678614,
        "meta_mean_motion_dot": -0.01890433,
        "meta_mean_motion_ddot": 0,
        "tle_line1": "1 66530U 25265Q   25339.25002315 -.01890433  00000+0 -16679-1 0  9999",
        "tle_line2": "2 66530  42.9999  98.1730 0001375 268.5771 345.3649 15.70703792  3798"
      },
      "geometry": {
        "type": "Point",
        "coordinates": [
          137.5580284541567,
          32.24940928631817
        ]
      }
    }
  ]
}